start=new Date('2022-04-02T00:00:00.000Z').valueOf();
sats=[{"MEAN_MOTION_DDOT":"0.0000000000000","SITE":"AFETR","GP_ID":"200266935","OBJECT_NAME":"STARLINK-3591","PERIAPSIS":"348.937","MEAN_MOTION_DOT":"-0.00114074","EPOCH":"2022-04-01T22:00:00.999936","RA_OF_ASC_NODE":"359.1043","REV_AT_EPOCH":"367","ECCENTRICITY":"0.00010750","EPHEMERIS_TYPE":"0","ARG_OF_PERICENTER":"100.0021","RCS_SIZE":"LARGE","ELEMENT_SET_NO":"999","DECAY_DATE":null,"REF_FRAME":"TEME","APOAPSIS":"350.384","COUNTRY_CODE":"US","BSTAR":"-0.00081822000000","MEAN_ELEMENT_THEORY":"SGP4","INCLINATION":"53.2187","PERIOD":"91.531","OBJECT_TYPE":"PAYLOAD","FILE":"3383778","OBJECT_ID":"2022-022U","NORAD_CAT_ID":"51870","TLE_LINE2":"2 51870  53.2187 359.1043 0001075 100.0021  90.2435 15.73234924  3670","LAUNCH_DATE":"2022-03-03","TLE_LINE1":"1 51870U 22022U   22091.91667824 -.00114074  00000-0 -81822-3 0  9999","MEAN_MOTION":"15.73234924","CENTER_NAME":"EARTH","TIME_SYSTEM":"UTC","CLASSIFICATION_TYPE":"U","MEAN_ANOMALY":"90.2435","SEMIMAJOR_AXIS":"6727.796"},{"LAUNCH_DATE":"2022-03-03","TLE_LINE1":"1 51871U 22022V   22091.91667824 -.00080515  00000-0 -57502-3 0  9990","MEAN_MOTION":"15.73189852","CENTER_NAME":"EARTH","TIME_SYSTEM":"UTC","TLE_LINE2":"2 51871  53.2171 359.1013 0001154  91.1110 101.0260 15.73189852  3674","SEMIMAJOR_AXIS":"6727.924","CLASSIFICATION_TYPE":"U","MEAN_ANOMALY":"101.0260","INCLINATION":"53.2171","COUNTRY_CODE":"US","BSTAR":"-0.00057502000000","MEAN_ELEMENT_THEORY":"SGP4","NORAD_CAT_ID":"51871","OBJECT_ID":"2022-022V","PERIOD":"91.534","OBJECT_TYPE":"PAYLOAD","FILE":"3383778","RCS_SIZE":"LARGE","ELEMENT_SET_NO":"999","DECAY_DATE":null,"APOAPSIS":"350.566","REF_FRAME":"TEME","GP_ID":"200266819","OBJECT_NAME":"STARLINK-3567","MEAN_MOTION_DDOT":"0.0000000000000","SITE":"AFETR","RA_OF_ASC_NODE":"359.1013","EPOCH":"2022-04-01T22:00:00.999936","REV_AT_EPOCH":"367","ECCENTRICITY":"0.00011540","EPHEMERIS_TYPE":"0","ARG_OF_PERICENTER":"91.1110","MEAN_MOTION_DOT":"-0.00080515","PERIAPSIS":"349.013"},{"CLASSIFICATION_TYPE":"U","MEAN_ANOMALY":"105.1329","SEMIMAJOR_AXIS":"6727.881","TLE_LINE2":"2 51872  53.2187 359.1035 0001227  85.7138 105.1329 15.73205063  3670","LAUNCH_DATE":"2022-03-03","TLE_LINE1":"1 51872U 22022W   22091.91667824 -.00098043  00000-0 -70216-3 0  9993","MEAN_MOTION":"15.73205063","CENTER_NAME":"EARTH","TIME_SYSTEM":"UTC","PERIOD":"91.533","OBJECT_TYPE":"PAYLOAD","FILE":"3383778","NORAD_CAT_ID":"51872","OBJECT_ID":"2022-022W","BSTAR":"-0.00070216000000","COUNTRY_CODE":"US","MEAN_ELEMENT_THEORY":"SGP4","INCLINATION":"53.2187","REF_FRAME":"TEME","APOAPSIS":"350.571","RCS_SIZE":"LARGE","ELEMENT_SET_NO":"999","DECAY_DATE":null,"PERIAPSIS":"348.920","MEAN_MOTION_DOT":"-0.00098043","EPOCH":"2022-04-01T22:00:00.999936","RA_OF_ASC_NODE":"359.1035","REV_AT_EPOCH":"367","ECCENTRICITY":"0.00012270","EPHEMERIS_TYPE":"0","ARG_OF_PERICENTER":"85.7138","MEAN_MOTION_DDOT":"0.0000000000000","SITE":"AFETR","GP_ID":"200267038","OBJECT_NAME":"STARLINK-3554"},{"COUNTRY_CODE":"US","BSTAR":"-0.00082826000000","MEAN_ELEMENT_THEORY":"SGP4","INCLINATION":"53.2185","PERIOD":"91.532","FILE":"3383778","OBJECT_TYPE":"PAYLOAD","NORAD_CAT_ID":"51873","OBJECT_ID":"2022-022X","TLE_LINE2":"2 51873  53.2185 359.0973 0001262  95.3322  98.7232 15.73212686  3679","TLE_LINE1":"1 51873U 22022X   22091.91667824 -.00115342  00000-0 -82826-3 0  9996","LAUNCH_DATE":"2022-03-03","TIME_SYSTEM":"UTC","CENTER_NAME":"EARTH","MEAN_MOTION":"15.73212686","CLASSIFICATION_TYPE":"U","MEAN_ANOMALY":"98.7232","SEMIMAJOR_AXIS":"6727.859","MEAN_MOTION_DDOT":"0.0000000000000","SITE":"AFETR","GP_ID":"200267326","OBJECT_NAME":"STARLINK-3582","PERIAPSIS":"348.875","MEAN_MOTION_DOT":"-0.00115342","REV_AT_EPOCH":"367","EPOCH":"2022-04-01T22:00:00.999936","RA_OF_ASC_NODE":"359.0973","ARG_OF_PERICENTER":"95.3322","ECCENTRICITY":"0.00012620","EPHEMERIS_TYPE":"0","ELEMENT_SET_NO":"999","RCS_SIZE":"LARGE","DECAY_DATE":null,"REF_FRAME":"TEME","APOAPSIS":"350.573"},{"PERIAPSIS":"348.995","MEAN_MOTION_DOT":"-0.00115030","RA_OF_ASC_NODE":"359.0992","EPOCH":"2022-04-01T22:00:00.999936","REV_AT_EPOCH":"367","ECCENTRICITY":"0.00011860","EPHEMERIS_TYPE":"0","ARG_OF_PERICENTER":"90.4640","MEAN_MOTION_DDOT":"0.0000000000000","SITE":"AFETR","OBJECT_NAME":"STARLINK-3574","GP_ID":"200266614","REF_FRAME":"TEME","APOAPSIS":"350.591","RCS_SIZE":"LARGE","ELEMENT_SET_NO":"999","DECAY_DATE":null,"PERIOD":"91.534","OBJECT_TYPE":"PAYLOAD","FILE":"3383778","OBJECT_ID":"2022-022Y","NORAD_CAT_ID":"51874","BSTAR":"-0.00082684000000","COUNTRY_CODE":"US","MEAN_ELEMENT_THEORY":"SGP4","INCLINATION":"53.2187","CLASSIFICATION_TYPE":"U","MEAN_ANOMALY":"102.3480","SEMIMAJOR_AXIS":"6727.928","TLE_LINE2":"2 51874  53.2187 359.0992 0001186  90.4640 102.3480 15.73188595  3675","LAUNCH_DATE":"2022-03-03","TLE_LINE1":"1 51874U 22022Y   22091.91667824 -.00115030  00000-0 -82684-3 0  9993","CENTER_NAME":"EARTH","MEAN_MOTION":"15.73188595","TIME_SYSTEM":"UTC"},{"NORAD_CAT_ID":"51875","OBJECT_ID":"2022-022Z","FILE":"3383778","OBJECT_TYPE":"PAYLOAD","PERIOD":"91.533","INCLINATION":"53.2173","MEAN_ELEMENT_THEORY":"SGP4","COUNTRY_CODE":"US","BSTAR":"-0.00041341000000","SEMIMAJOR_AXIS":"6727.884","MEAN_ANOMALY":"104.6629","CLASSIFICATION_TYPE":"U","TIME_SYSTEM":"UTC","MEAN_MOTION":"15.73203772","CENTER_NAME":"EARTH","TLE_LINE1":"1 51875U 22022Z   22091.91667824 -.00058246  00000-0 -41341-3 0  9994","LAUNCH_DATE":"2022-03-03","TLE_LINE2":"2 51875  53.2173 359.0948 0001011  90.6851 104.6629 15.73203772  3670","ARG_OF_PERICENTER":"90.6851","ECCENTRICITY":"0.00010110","EPHEMERIS_TYPE":"0","REV_AT_EPOCH":"367","RA_OF_ASC_NODE":"359.0948","EPOCH":"2022-04-01T22:00:00.999936","PERIAPSIS":"349.069","MEAN_MOTION_DOT":"-0.00058246","OBJECT_NAME":"STARLINK-3585","GP_ID":"200267140","SITE":"AFETR","MEAN_MOTION_DDOT":"0.0000000000000","APOAPSIS":"350.430","REF_FRAME":"TEME","DECAY_DATE":null,"ELEMENT_SET_NO":"999","RCS_SIZE":"LARGE"},{"INCLINATION":"53.2189","BSTAR":"-0.00095522000000","COUNTRY_CODE":"US","MEAN_ELEMENT_THEORY":"SGP4","OBJECT_ID":"2022-022AA","NORAD_CAT_ID":"51876","PERIOD":"91.533","OBJECT_TYPE":"PAYLOAD","FILE":"3383778","LAUNCH_DATE":"2022-03-03","TLE_LINE1":"1 51876U 22022AA  22091.91667824 -.00132594  00000-0 -95522-3 0  9994","CENTER_NAME":"EARTH","MEAN_MOTION":"15.73202480","TIME_SYSTEM":"UTC","TLE_LINE2":"2 51876  53.2189 359.0984 0000954  93.8763  99.5862 15.73202480  3676","SEMIMAJOR_AXIS":"6727.888","CLASSIFICATION_TYPE":"U","MEAN_ANOMALY":"99.5862","GP_ID":"200266717","OBJECT_NAME":"STARLINK-3583","MEAN_MOTION_DDOT":"0.0000000000000","SITE":"AFETR","EPOCH":"2022-04-01T22:00:00.999936","RA_OF_ASC_NODE":"359.0984","REV_AT_EPOCH":"367","EPHEMERIS_TYPE":"0","ECCENTRICITY":"0.00009540","ARG_OF_PERICENTER":"93.8763","MEAN_MOTION_DOT":"-0.00132594","PERIAPSIS":"349.111","RCS_SIZE":"LARGE","ELEMENT_SET_NO":"999","DECAY_DATE":null,"APOAPSIS":"350.395","REF_FRAME":"TEME"},{"FILE":"3383778","OBJECT_TYPE":"PAYLOAD","PERIOD":"91.533","NORAD_CAT_ID":"51877","OBJECT_ID":"2022-022AB","MEAN_ELEMENT_THEORY":"SGP4","COUNTRY_CODE":"US","BSTAR":"-0.00078469000000","INCLINATION":"53.2171","MEAN_ANOMALY":"113.9269","CLASSIFICATION_TYPE":"U","SEMIMAJOR_AXIS":"6727.875","TLE_LINE2":"2 51877  53.2171 359.0923 0001420  82.6610 113.9269 15.73206953  3678","TIME_SYSTEM":"UTC","MEAN_MOTION":"15.73206953","CENTER_NAME":"EARTH","TLE_LINE1":"1 51877U 22022AB  22091.91667824 -.00109360  00000-0 -78469-3 0  9991","LAUNCH_DATE":"2022-03-03","MEAN_MOTION_DOT":"-0.00109360","PERIAPSIS":"348.785","ARG_OF_PERICENTER":"82.6610","ECCENTRICITY":"0.00014200","EPHEMERIS_TYPE":"0","REV_AT_EPOCH":"367","RA_OF_ASC_NODE":"359.0923","EPOCH":"2022-04-01T22:00:00.999936","SITE":"AFETR","MEAN_MOTION_DDOT":"0.0000000000000","GP_ID":"200267236","OBJECT_NAME":"STARLINK-3556","REF_FRAME":"TEME","APOAPSIS":"350.696","DECAY_DATE":null,"ELEMENT_SET_NO":"999","RCS_SIZE":"LARGE"},{"INCLINATION":"53.2189","COUNTRY_CODE":"US","BSTAR":"-0.00053154000000","MEAN_ELEMENT_THEORY":"SGP4","OBJECT_ID":"2022-022AC","NORAD_CAT_ID":"51878","PERIOD":"91.532","FILE":"3383778","OBJECT_TYPE":"PAYLOAD","TLE_LINE1":"1 51878U 22022AC  22091.91667824 -.00074629  00000-0 -53154-3 0  9995","LAUNCH_DATE":"2022-03-03","TIME_SYSTEM":"UTC","MEAN_MOTION":"15.73222511","CENTER_NAME":"EARTH","TLE_LINE2":"2 51878  53.2189 359.0959 0001168 100.7140  93.9933 15.73222511  3679","SEMIMAJOR_AXIS":"6727.831","CLASSIFICATION_TYPE":"U","MEAN_ANOMALY":"93.9933","GP_ID":"200266936","OBJECT_NAME":"STARLINK-3575","MEAN_MOTION_DDOT":"0.0000000000000","SITE":"AFETR","REV_AT_EPOCH":"367","EPOCH":"2022-04-01T22:00:00.999936","RA_OF_ASC_NODE":"359.0959","ARG_OF_PERICENTER":"100.7140","ECCENTRICITY":"0.00011680","EPHEMERIS_TYPE":"0","PERIAPSIS":"348.910","MEAN_MOTION_DOT":"-0.00074629","ELEMENT_SET_NO":"999","RCS_SIZE":"LARGE","DECAY_DATE":null,"APOAPSIS":"350.482","REF_FRAME":"TEME"},{"MEAN_MOTION_DDOT":"0.0000000000000","SITE":"AFETR","OBJECT_NAME":"STARLINK-3572","GP_ID":"200266820","PERIAPSIS":"348.902","MEAN_MOTION_DOT":"-0.00105104","REV_AT_EPOCH":"367","RA_OF_ASC_NODE":"359.0902","EPOCH":"2022-04-01T22:00:00.999936","ARG_OF_PERICENTER":"91.3408","EPHEMERIS_TYPE":"0","ECCENTRICITY":"0.00013020","ELEMENT_SET_NO":"999","RCS_SIZE":"LARGE","DECAY_DATE":null,"REF_FRAME":"TEME","APOAPSIS":"350.654","COUNTRY_CODE":"US","BSTAR":"-0.00075404000000","MEAN_ELEMENT_THEORY":"SGP4","INCLINATION":"53.2172","PERIOD":"91.534","FILE":"3383778","OBJECT_TYPE":"PAYLOAD","NORAD_CAT_ID":"51879","OBJECT_ID":"2022-022AD","TLE_LINE2":"2 51879  53.2172 359.0902 0001302  91.3408 106.5441 15.73193764  3674","TLE_LINE1":"1 51879U 22022AD  22091.91667824 -.00105104  00000-0 -75404-3 0  9991","LAUNCH_DATE":"2022-03-03","TIME_SYSTEM":"UTC","MEAN_MOTION":"15.73193764","CENTER_NAME":"EARTH","CLASSIFICATION_TYPE":"U","MEAN_ANOMALY":"106.5441","SEMIMAJOR_AXIS":"6727.913"}];
